CCSDS_OMM_VERS = 2.0
CREATION_DATE  = 
ORIGINATOR     = 

OBJECT_NAME    = UNKNOWN
OBJECT_ID      = 
CENTER_NAME    = EARTH
REF_FRAME      = TEME
TIME_SYSTEM    = UTC
MEAN_ELEMENT_THEORY = SGP/SGP4

EPOCH          = 2026-03-31T12:07:14.287872
MEAN_MOTION    = 12.95717989
ECCENTRICITY   = .00452492
INCLINATION    = 90.2484
RA_OF_ASC_NODE = 10.4754
ARG_OF_PERICENTER = 41.8164
MEAN_ANOMALY   = 318.6398

EPHEMERIS_TYPE = 0
CLASSIFICATION_TYPE = U
NORAD_CAT_ID   = 270165
ELEMENT_SET_NO = 999
REV_AT_EPOCH   = 29840
BSTAR          = .19749868E-3
MEAN_MOTION_DOT = .64E-6
MEAN_MOTION_DDOT = 0

CCSDS_OMM_VERS = 2.0
CREATION_DATE  = 
ORIGINATOR     = 

OBJECT_NAME    = UNKNOWN
OBJECT_ID      = 
CENTER_NAME    = EARTH
REF_FRAME      = TEME
TIME_SYSTEM    = UTC
MEAN_ELEMENT_THEORY = SGP/SGP4

EPOCH          = 2026-03-27T18:59:08.098080
MEAN_MOTION    = 14.31294338
ECCENTRICITY   = .00039797
INCLINATION    = 98.7439
RA_OF_ASC_NODE = 108.2497
ARG_OF_PERICENTER = 302.9568
MEAN_ANOMALY   = 57.1231

EPHEMERIS_TYPE = 0
CLASSIFICATION_TYPE = U
NORAD_CAT_ID   = 270166
ELEMENT_SET_NO = 999
REV_AT_EPOCH   = 33015
BSTAR          = .12286973E-3
MEAN_MOTION_DOT = .28E-5
MEAN_MOTION_DDOT = 0

CCSDS_OMM_VERS = 2.0
CREATION_DATE  = 
ORIGINATOR     = 

OBJECT_NAME    = UNKNOWN
OBJECT_ID      = 
CENTER_NAME    = EARTH
REF_FRAME      = TEME
TIME_SYSTEM    = UTC
MEAN_ELEMENT_THEORY = SGP/SGP4

EPOCH          = 2026-03-22T08:47:49.010208
MEAN_MOTION    = 11.48031888
ECCENTRICITY   = .06979392
INCLINATION    = 65.7391
RA_OF_ASC_NODE = 312.6510
ARG_OF_PERICENTER = 163.6790
MEAN_ANOMALY   = 198.7919

EPHEMERIS_TYPE = 0
CLASSIFICATION_TYPE = U
NORAD_CAT_ID   = 270167
ELEMENT_SET_NO = 999
REV_AT_EPOCH   = 26453
BSTAR          = .20370491E-2
MEAN_MOTION_DOT = .115E-5
MEAN_MOTION_DDOT = 0

CCSDS_OMM_VERS = 2.0
CREATION_DATE  = 
ORIGINATOR     = 

OBJECT_NAME    = UNKNOWN
OBJECT_ID      = 
CENTER_NAME    = EARTH
REF_FRAME      = TEME
TIME_SYSTEM    = UTC
MEAN_ELEMENT_THEORY = SGP/SGP4

EPOCH          = 2026-03-30T04:30:11.754720
MEAN_MOTION    = 13.43049521
ECCENTRICITY   = .02045305
INCLINATION    = 83.0008
RA_OF_ASC_NODE = 68.8196
ARG_OF_PERICENTER = 268.4530
MEAN_ANOMALY   = 89.3173

EPHEMERIS_TYPE = 0
CLASSIFICATION_TYPE = U
NORAD_CAT_ID   = 270169
ELEMENT_SET_NO = 999
REV_AT_EPOCH   = 31052
BSTAR          = .11328845E-2
MEAN_MOTION_DOT = .743E-5
MEAN_MOTION_DDOT = 0

CCSDS_OMM_VERS = 2.0
CREATION_DATE  = 
ORIGINATOR     = 

OBJECT_NAME    = UNKNOWN
OBJECT_ID      = 
CENTER_NAME    = EARTH
REF_FRAME      = TEME
TIME_SYSTEM    = UTC
MEAN_ELEMENT_THEORY = SGP/SGP4

EPOCH          = 2026-03-31T01:30:28.954368
MEAN_MOTION    = 14.41863367
ECCENTRICITY   = .00180033
INCLINATION    = 65.0077
RA_OF_ASC_NODE = 11.4133
ARG_OF_PERICENTER = 286.0167
MEAN_ANOMALY   = 73.8940

EPHEMERIS_TYPE = 0
CLASSIFICATION_TYPE = U
NORAD_CAT_ID   = 270170
ELEMENT_SET_NO = 999
REV_AT_EPOCH   = 33246
BSTAR          = .56113497E-3
MEAN_MOTION_DOT = .1741E-4
MEAN_MOTION_DDOT = 0

CCSDS_OMM_VERS = 2.0
CREATION_DATE  = 
ORIGINATOR     = 

OBJECT_NAME    = UNKNOWN
OBJECT_ID      = 
CENTER_NAME    = EARTH
REF_FRAME      = TEME
TIME_SYSTEM    = UTC
MEAN_ELEMENT_THEORY = SGP/SGP4

EPOCH          = 2026-03-28T00:15:24.324480
MEAN_MOTION    = 11.95841294
ECCENTRICITY   = .00208169
INCLINATION    = 82.4286
RA_OF_ASC_NODE = 354.4025
ARG_OF_PERICENTER = 99.1511
MEAN_ANOMALY   = 261.1897

EPHEMERIS_TYPE = 0
CLASSIFICATION_TYPE = U
NORAD_CAT_ID   = 270171
ELEMENT_SET_NO = 999
REV_AT_EPOCH   = 27593
BSTAR          = .21660624E-2
MEAN_MOTION_DOT = .175E-5
MEAN_MOTION_DDOT = 0

CCSDS_OMM_VERS = 2.0
CREATION_DATE  = 
ORIGINATOR     = 

OBJECT_NAME    = UNKNOWN
OBJECT_ID      = 
CENTER_NAME    = EARTH
REF_FRAME      = TEME
TIME_SYSTEM    = UTC
MEAN_ELEMENT_THEORY = SGP/SGP4

EPOCH          = 2026-03-29T11:06:29.737152
MEAN_MOTION    = 14.45893013
ECCENTRICITY   = .00250437
INCLINATION    = 86.3800
RA_OF_ASC_NODE = 355.9192
ARG_OF_PERICENTER = 156.4062
MEAN_ANOMALY   = 203.8296

EPHEMERIS_TYPE = 0
CLASSIFICATION_TYPE = U
NORAD_CAT_ID   = 270172
ELEMENT_SET_NO = 999
REV_AT_EPOCH   = 33277
BSTAR          = .51535746E-3
MEAN_MOTION_DOT = .1858E-4
MEAN_MOTION_DDOT = 0

CCSDS_OMM_VERS = 2.0
CREATION_DATE  = 
ORIGINATOR     = 

OBJECT_NAME    = UNKNOWN
OBJECT_ID      = 
CENTER_NAME    = EARTH
REF_FRAME      = TEME
TIME_SYSTEM    = UTC
MEAN_ELEMENT_THEORY = SGP/SGP4

EPOCH          = 2026-03-31T05:39:22.919616
MEAN_MOTION    = 14.85924020
ECCENTRICITY   = .00032938
INCLINATION    = 86.6098
RA_OF_ASC_NODE = 19.6135
ARG_OF_PERICENTER = 73.6041
MEAN_ANOMALY   = 286.5545

EPHEMERIS_TYPE = 0
CLASSIFICATION_TYPE = U
NORAD_CAT_ID   = 270173
ELEMENT_SET_NO = 999
REV_AT_EPOCH   = 34016
BSTAR          = .55522313E-3
MEAN_MOTION_DOT = .4867E-4
MEAN_MOTION_DDOT = 0

CCSDS_OMM_VERS = 2.0
CREATION_DATE  = 
ORIGINATOR     = 

OBJECT_NAME    = UNKNOWN
OBJECT_ID      = 
CENTER_NAME    = EARTH
REF_FRAME      = TEME
TIME_SYSTEM    = UTC
MEAN_ELEMENT_THEORY = SGP/SGP4

EPOCH          = 2026-03-21T05:58:16.644000
MEAN_MOTION    = 11.49752106
ECCENTRICITY   = .09519953
INCLINATION    = 63.3876
RA_OF_ASC_NODE = 274.3675
ARG_OF_PERICENTER = 318.1626
MEAN_ANOMALY   = 35.0176

EPHEMERIS_TYPE = 0
CLASSIFICATION_TYPE = U
NORAD_CAT_ID   = 270174
ELEMENT_SET_NO = 999
REV_AT_EPOCH   = 26527
BSTAR          = .7075436E-3
MEAN_MOTION_DOT = .4E-6
MEAN_MOTION_DDOT = 0

CCSDS_OMM_VERS = 2.0
CREATION_DATE  = 
ORIGINATOR     = 

OBJECT_NAME    = UNKNOWN
OBJECT_ID      = 
CENTER_NAME    = EARTH
REF_FRAME      = TEME
TIME_SYSTEM    = UTC
MEAN_ELEMENT_THEORY = SGP/SGP4

EPOCH          = 2026-03-22T17:28:42.988512
MEAN_MOTION    = 12.21264466
ECCENTRICITY   = .08312851
INCLINATION    = 83.3133
RA_OF_ASC_NODE = 85.1649
ARG_OF_PERICENTER = 123.7199
MEAN_ANOMALY   = 244.5949

EPHEMERIS_TYPE = 0
CLASSIFICATION_TYPE = U
NORAD_CAT_ID   = 270175
ELEMENT_SET_NO = 999
REV_AT_EPOCH   = 28114
BSTAR          = .22651978E-2
MEAN_MOTION_DOT = .742E-5
MEAN_MOTION_DDOT = 0

CCSDS_OMM_VERS = 2.0
CREATION_DATE  = 
ORIGINATOR     = 

OBJECT_NAME    = UNKNOWN
OBJECT_ID      = 
CENTER_NAME    = EARTH
REF_FRAME      = TEME
TIME_SYSTEM    = UTC
MEAN_ELEMENT_THEORY = SGP/SGP4

EPOCH          = 2026-03-22T23:43:39.254592
MEAN_MOTION    = 13.04536712
ECCENTRICITY   = .00322038
INCLINATION    = 90.2311
RA_OF_ASC_NODE = 355.0821
ARG_OF_PERICENTER = 73.0826
MEAN_ANOMALY   = 287.3825

EPHEMERIS_TYPE = 0
CLASSIFICATION_TYPE = U
NORAD_CAT_ID   = 270176
ELEMENT_SET_NO = 999
REV_AT_EPOCH   = 29954
BSTAR          = .33103237E-2
MEAN_MOTION_DOT = .1073E-4
MEAN_MOTION_DDOT = 0

CCSDS_OMM_VERS = 2.0
CREATION_DATE  = 
ORIGINATOR     = 

OBJECT_NAME    = UNKNOWN
OBJECT_ID      = 
CENTER_NAME    = EARTH
REF_FRAME      = TEME
TIME_SYSTEM    = UTC
MEAN_ELEMENT_THEORY = SGP/SGP4

EPOCH          = 2026-03-30T10:41:23.327232
MEAN_MOTION    = 12.53649788
ECCENTRICITY   = .0095043
INCLINATION    = 100.9010
RA_OF_ASC_NODE = 152.2680
ARG_OF_PERICENTER = 84.4486
MEAN_ANOMALY   = 276.7421

EPHEMERIS_TYPE = 0
CLASSIFICATION_TYPE = U
NORAD_CAT_ID   = 270177
ELEMENT_SET_NO = 999
REV_AT_EPOCH   = 28948
BSTAR          = .17852092E-2
MEAN_MOTION_DOT = .25E-5
MEAN_MOTION_DDOT = 0

CCSDS_OMM_VERS = 2.0
CREATION_DATE  = 
ORIGINATOR     = 

OBJECT_NAME    = UNKNOWN
OBJECT_ID      = 
CENTER_NAME    = EARTH
REF_FRAME      = TEME
TIME_SYSTEM    = UTC
MEAN_ELEMENT_THEORY = SGP/SGP4

EPOCH          = 2026-03-30T05:57:27.777024
MEAN_MOTION    = 14.32207345
ECCENTRICITY   = .00203155
INCLINATION    = 98.6926
RA_OF_ASC_NODE = 92.8104
ARG_OF_PERICENTER = 30.4289
MEAN_ANOMALY   = 329.8069

EPHEMERIS_TYPE = 0
CLASSIFICATION_TYPE = U
NORAD_CAT_ID   = 270178
ELEMENT_SET_NO = 999
REV_AT_EPOCH   = 32982
BSTAR          = .18253968E-3
MEAN_MOTION_DOT = .448E-5
MEAN_MOTION_DDOT = 0

CCSDS_OMM_VERS = 2.0
CREATION_DATE  = 
ORIGINATOR     = 

OBJECT_NAME    = UNKNOWN
OBJECT_ID      = 
CENTER_NAME    = EARTH
REF_FRAME      = TEME
TIME_SYSTEM    = UTC
MEAN_ELEMENT_THEORY = SGP/SGP4

EPOCH          = 2026-03-30T18:17:27.536064
MEAN_MOTION    = 14.38544179
ECCENTRICITY   = .00332147
INCLINATION    = 98.6265
RA_OF_ASC_NODE = 95.7839
ARG_OF_PERICENTER = 48.2265
MEAN_ANOMALY   = 312.1752

EPHEMERIS_TYPE = 0
CLASSIFICATION_TYPE = U
NORAD_CAT_ID   = 270179
ELEMENT_SET_NO = 999
REV_AT_EPOCH   = 33113
BSTAR          = .20428467E-3
MEAN_MOTION_DOT = .584E-5
MEAN_MOTION_DDOT = 0

CCSDS_OMM_VERS = 2.0
CREATION_DATE  = 
ORIGINATOR     = 

OBJECT_NAME    = UNKNOWN
OBJECT_ID      = 
CENTER_NAME    = EARTH
REF_FRAME      = TEME
TIME_SYSTEM    = UTC
MEAN_ELEMENT_THEORY = SGP/SGP4

EPOCH          = 2026-03-21T06:40:02.269920
MEAN_MOTION    = 12.92598895
ECCENTRICITY   = .06887927
INCLINATION    = 72.9876
RA_OF_ASC_NODE = 291.1032
ARG_OF_PERICENTER = 220.6099
MEAN_ANOMALY   = 134.1619

EPHEMERIS_TYPE = 0
CLASSIFICATION_TYPE = U
NORAD_CAT_ID   = 270181
ELEMENT_SET_NO = 999
REV_AT_EPOCH   = 29655
BSTAR          = .17492401E-2
MEAN_MOTION_DOT = .1368E-4
MEAN_MOTION_DDOT = 0

CCSDS_OMM_VERS = 2.0
CREATION_DATE  = 
ORIGINATOR     = 

OBJECT_NAME    = UNKNOWN
OBJECT_ID      = 
CENTER_NAME    = EARTH
REF_FRAME      = TEME
TIME_SYSTEM    = UTC
MEAN_ELEMENT_THEORY = SGP/SGP4

EPOCH          = 2026-03-31T11:02:15.595872
MEAN_MOTION    = 13.01447861
ECCENTRICITY   = .00405824
INCLINATION    = 90.2474
RA_OF_ASC_NODE = 357.9115
ARG_OF_PERICENTER = 85.7374
MEAN_ANOMALY   = 274.8385

EPHEMERIS_TYPE = 0
CLASSIFICATION_TYPE = U
NORAD_CAT_ID   = 270183
ELEMENT_SET_NO = 999
REV_AT_EPOCH   = 30020
BSTAR          = -.20716523E-2
MEAN_MOTION_DOT = -.631E-5
MEAN_MOTION_DDOT = 0

